0 NOAA 11 DEB
1 37242U 88089E   13283.14572204  .00001378  00000-0  73904-3 0  7996
2 37242 098.7094 001.4212 0010815 197.3424 219.4596 14.14598491292221
0 NOAA 11 DEB
1 37242U 88089E   13286.18632258  .00001472  00000-0  78821-3 0  8011
2 37242 098.7093 004.3873 0010984 188.8740 223.7007 14.14607250292654
0 NOAA 11 DEB
1 37242U 88089E   13287.83025545  .00001684  00000-0  89806-3 0  8020
2 37242 098.7092 005.9910 0011046 184.6016 315.1520 14.14614100292885
0 NOAA 11 DEB
1 37242U 88089E   13289.14951344  .00001774  00000-0  94500-3 0  8039
2 37242 098.7089 007.2780 0011089 180.8056 193.6544 14.14620804293064
0 NOAA 11 DEB
1 37242U 88089E   13290.72549564  .00001849  00000-0  98354-3 0  8047
2 37242 098.7085 008.8156 0011174 176.1939 299.6770 14.14626331293291
0 NOAA 11 DEB
1 37242U 88089E   13292.19399245  .00002193  00000-0  11626-2 0  8059
2 37242 098.7085 010.2477 0011148 171.9879 218.2515 14.14629206293503
0 NOAA 11 DEB
1 37242U 88089E   13293.26265650  .00002611  00000-0  13796-2 0  8066
2 37242 098.7082 011.2902 0011194 169.2607 260.2885 14.14632910293653
0 NOAA 11 DEB
1 37242U 88089E   13294.39870677  .00002690  00000-0  14203-2 0  8074
2 37242 098.7080 012.3983 0011232 166.1650 285.6923 14.14638051293813
0 NOAA 11 DEB
1 37242U 88089E   13296.16588958  .00002153  00000-0  11412-2 0  8083
2 37242 098.7081 014.1223 0011412 161.3186 285.2412 14.14649227294066
